MEAN_MOTION;ECCENTRICITY;INCLINATION;RA_OF_ASC_NODE;ARG_OF_PERICENTER;MEAN_ANOMALY;BSTAR;MEAN_MOTION_DOT;MEAN_MOTION_DDOT;TYPE
14.33155416;0.0011934;98.6588;20.2933;70.6698;347.3887;2.0389E-5;1.1E-7;0;Amateur
14.33155551;0.001192;98.6589;21.336;67.9419;328.3961;2.0351E-5;1.1E-7;0;Amateur
14.33155556;0.001192;98.659;21.5514;67.3762;359.5754;1.9546E-5;9.0E-8;0;Amateur
14.33155648;0.0011899;98.6591;22.3187;65.2582;359.5552;1.8072E-5;5.0E-8;0;Amateur
14.33155713;0.001189;98.6592;22.8858;63.7524;45.8298;1.7375E-5;3.0E-8;0;Amateur
14.33155749;0.0011886;98.6592;23.1665;63.0342;54.3893;1.8143E-5;5.0E-8;0;Amateur
14.33155839;0.0011876;98.6594;23.8014;61.3238;90.298;1.901E-5;8.0E-8;0;Amateur
14.33155862;0.0011868;98.6594;24.1442;60.4059;59.3259;1.9284E-5;8.0E-8;0;Amateur
14.33155982;0.001184;98.6595;25.2437;57.4209;332.7899;1.8564E-5;6.0E-8;0;Amateur
14.33156156;0.0011827;98.6597;26.296;54.6003;2.7764;2.171E-5;1.5E-7;0;Amateur
14.33156268;0.0011793;98.6598;27.2725;51.9349;1.3025;2.4234E-5;2.2E-7;0;Amateur
14.33156299;0.0011786;98.6599;27.5542;51.1932;14.9614;2.4802E-5;2.4E-7;0;Amateur
14.33156388;0.0011752;98.66;28.3229;49.0644;21.1603;2.4498E-5;2.3E-7;0;Amateur
14.33156476;0.0011732;98.6601;28.8901;47.5419;67.6753;2.5364E-5;2.5E-7;0;Amateur
14.3315653;0.0011718;98.6601;29.298;46.4014;12.3891;2.6154E-5;2.7E-7;0;Amateur
14.33156633;0.0011695;98.6602;29.9966;44.509;16.9985;2.8706E-5;3.4E-7;0;Amateur
14.331567;0.001167;98.6603;30.3426;43.5888;2.9551;2.938E-5;3.6E-7;0;Amateur
14.33156837;0.0011619;98.6604;31.324;40.9079;26.2888;2.9063E-5;3.5E-7;0;Amateur
14.33156847;0.0011618;98.6604;31.3943;40.7094;29.4025;2.9257E-5;3.6E-7;0;Amateur
14.33156908;0.0011594;98.6605;32.0196;38.984;15.446;2.6521E-5;2.8E-7;0;Amateur
14.3315694;0.001158;98.6605;32.2997;38.2193;20.7619;2.4992E-5;2.4E-7;0;Amateur
14.33157;0.0011568;98.6605;32.6574;37.2585;66.4565;2.6169E-5;2.7E-7;0;Amateur
14.3315703;0.0011552;98.6605;33.0663;36.1362;15.9304;2.5022E-5;2.4E-7;0;Amateur
14.33157071;0.0011541;98.6606;33.2759;35.5502;17.6427;2.507E-5;2.4E-7;0;Amateur
14.33157163;0.0011508;98.6606;33.984;33.614;70.8502;2.5136E-5;2.4E-7;0;Amateur
14.33157165;0.0011505;98.6606;34.0437;33.4462;18.5796;2.4838E-5;2.4E-7;0;Amateur
14.33157215;0.0011488;98.6607;34.3263;32.6542;36.6757;2.4041E-5;2.1E-7;0;Amateur
14.33157343;0.0011442;98.6608;35.3018;29.9691;29.832;2.2391E-5;1.7E-7;0;Amateur
14.3315746;0.0011398;98.661;36.2779;27.2482;25.9091;2.2132E-5;1.6E-7;0;Amateur
14.33157473;0.0011385;98.661;36.5602;26.4779;41.8599;2.1313E-5;1.4E-7;0;Amateur
14.33157546;0.0011346;98.6611;37.2551;24.5036;27.2582;1.9758E-5;1.0E-7;0;Amateur
14.33157584;0.0011311;98.6613;37.8948;22.7022;87.5949;1.6815E-5;1.0E-8;0;Amateur
14.33157632;0.001129;98.6613;38.3042;21.5308;39.5296;1.7245E-5;3.0E-8;0;Amateur
14.33157665;0.0011257;98.6615;38.9437;19.745;98.6491;1.6468E-5;1.0E-8;0;Amateur
14.33157803;0.0011182;98.6617;40.2588;15.9884;42.9906;1.7653E-5;4.0E-8;0;Amateur
14.33157878;0.0011143;98.6618;40.8969;14.1746;95.3995;1.7857E-5;4.0E-8;0;Amateur
14.33157924;0.001112;98.6618;41.3069;12.9718;50.2626;1.8579E-5;6.0E-8;0;Amateur
14.33157991;0.0011087;98.6619;41.8748;11.3707;100.0516;1.9944E-5;1.0E-7;0;Amateur
14.33158049;0.0011068;98.662;42.2824;10.2097;43.1711;2.1675E-5;1.5E-7;0;Amateur
14.33158052;0.0011051;98.662;42.5645;9.4301;58.3316;2.1342E-5;1.4E-7;0;Amateur
14.33158137;0.0011012;98.662;43.2616;7.3617;54.6885;2.2252E-5;1.6E-7;0;Amateur
14.33158201;0.0010974;98.6621;43.8995;5.5298;105.3416;2.1591E-5;1.5E-7;0;Amateur
14.33158253;0.0010951;98.6621;44.3093;4.3442;58.8818;2.2048E-5;1.6E-7;0;Amateur
14.33158356;0.0010889;98.6622;45.2849;1.526;51.6752;2.3251E-5;1.9E-7;0;Amateur
14.33158432;0.001085;98.6623;45.9246;359.6507;111.5665;2.4347E-5;2.2E-7;0;Amateur
14.33158505;0.0010808;98.6623;46.5442;357.8277;68.0074;2.3878E-5;2.1E-7;0;Amateur
14.3315862;0.0010766;98.6624;47.312;355.5424;68.2847;2.3689E-5;2.0E-7;0;Amateur
14.33158693;0.001072;98.6624;47.9509;353.6692;124.1793;2.3342E-5;1.9E-7;0;Amateur
14.33158741;0.0010699;98.6625;48.2875;352.6654;60.641;2.3245E-5;1.9E-7;0;Amateur
14.33158804;0.0010657;98.6626;48.9975;350.5615;122.3558;2.2299E-5;1.6E-7;0;Amateur
14.3315886;0.0010639;98.6626;49.3309;349.5339;42.6199;2.1646E-5;1.5E-7;0;Amateur
14.33158956;0.0010581;98.6627;50.3146;346.6021;76.7764;1.8312E-5;6.0E-8;0;Amateur
14.33158961;0.0010581;98.6627;50.38;346.4163;53.6953;1.8088E-5;5.0E-8;0;Amateur
14.33159045;0.001053;98.6629;51.2912;343.6741;74.0999;1.6509E-5;1.0E-8;0;Amateur
14.33159088;0.0010494;98.663;51.9302;341.7732;130.1458;1.5462E-5;-2.0E-8;0;Amateur
14.33159116;0.0010476;98.663;52.2679;340.7327;71.8497;1.4707E-5;-4.0E-8;0;Amateur
14.33159226;0.0010417;98.6632;53.3182;337.5014;89.3528;1.3812E-5;-7.0E-8;0;Amateur
14.33159314;0.0010359;98.6633;54.2939;334.5599;82.2114;1.4444E-5;-5.0E-8;0;Amateur
14.33159358;0.0010321;98.6634;54.9329;332.6076;138.4845;1.5341E-5;-3.0E-8;0;Amateur
14.33159391;0.0010305;98.6634;55.2708;331.5534;81.0312;1.5629E-5;-2.0E-8;0;Amateur
14.3315951;0.0010256;98.6636;56.3211;328.2848;98.4285;1.7324E-5;3.0E-8;0;Amateur
14.33159521;0.0010257;98.6636;56.3858;328.099;72.2727;1.7612E-5;4.0E-8;0;Amateur
14.33159621;0.0010214;98.6637;57.2969;325.2907;91.4465;1.9546E-5;9.0E-8;0;Amateur
14.33159644;0.0010198;98.6637;57.5784;324.4366;103.2791;2.0532E-5;1.2E-7;0;Amateur
14.33159728;0.0010168;98.6637;58.2739;322.2525;90.5861;2.184E-5;1.5E-7;0;Amateur
14.33159813;0.0010135;98.6638;58.9137;320.2583;150.5864;2.2788E-5;1.8E-7;0;Amateur
14.33159879;0.0010098;98.6639;59.3244;318.8856;108.5162;2.3666E-5;2.0E-7;0;Amateur
14.33159959;0.0010067;98.6639;59.8912;317.1014;151.5942;2.4136E-5;2.1E-7;0;Amateur
14.33159976;0.0010052;98.6639;60.1723;316.2002;161.5896;2.4023E-5;2.1E-7;0;Amateur
14.33160085;0.0010015;98.664;60.9412;313.7785;166.9136;2.5391E-5;2.5E-7;0;Amateur
14.33160144;0.0009993;98.664;61.2772;312.6694;100.309;2.5853E-5;2.6E-7;0;Amateur
14.33160301;0.0009956;98.6641;62.3277;309.3541;118.0991;2.488E-5;2.4E-7;0;Amateur
14.33160437;0.0009914;98.6642;63.3036;306.2349;111.1984;2.3961E-5;2.1E-7;0;Amateur
14.33160515;0.0009887;98.6643;63.8726;304.3971;165.687;2.4081E-5;2.1E-7;0;Amateur
14.33160576;0.000987;98.6643;64.3474;302.8647;94.5013;2.3517E-5;2.0E-7;0;Amateur
14.33160652;0.0009845;98.6644;64.9203;301.0153;169.197;2.2796E-5;1.8E-7;0;Amateur
14.33160725;0.0009839;98.6645;65.3315;299.6619;129.9635;2.2619E-5;1.7E-7;0;Amateur
14.33160819;0.0009812;98.6646;66.3072;296.4979;121.4289;2.03E-5;1.1E-7;0;Amateur
14.33160931;0.0009783;98.6648;67.2841;293.3469;119.5419;2.0335E-5;1.1E-7;0;Amateur
14.3316095;0.0009773;98.6649;67.5661;292.4424;133.9932;1.9856E-5;1.0E-7;0;Amateur
14.33161011;0.0009761;98.6649;67.9241;291.2586;179.8527;2.0302E-5;1.1E-7;0;Amateur
14.33161049;0.0009752;98.665;68.3348;289.9279;138.182;1.9259E-5;8.0E-8;0;Amateur
14.33161119;0.0009739;98.6651;68.9019;288.0426;182.9054;1.8977E-5;7.0E-8;0;Amateur
14.33161163;0.0009731;98.6651;69.3111;286.6903;133.2476;1.918E-5;8.0E-8;0;Amateur
14.33161228;0.0009716;98.6652;69.8797;284.8378;185.3226;2.0155E-5;1.1E-7;0;Amateur
14.3316127;0.000971;98.6653;70.2877;283.4939;129.4044;2.0671E-5;1.2E-7;0;Amateur
14.33161388;0.0009693;98.6654;71.267;280.2849;139.5954;2.1726E-5;1.5E-7;0;Amateur
14.33161476;0.0009677;98.6654;71.9055;278.1113;192.3781;2.2102E-5;1.6E-7;0;Amateur
14.33161537;0.0009676;98.6654;72.3147;276.7954;142.3209;2.3204E-5;1.9E-7;0;Amateur
14.33161605;0.0009662;98.6655;72.9554;274.634;206.3398;2.4383E-5;2.2E-7;0;Amateur
14.3316164;0.0009659;98.6655;73.2915;273.4889;139.8731;2.4332E-5;2.2E-7;0;Amateur
14.33161791;0.0009655;98.6656;74.5509;269.3818;153.9207;2.5092E-5;2.4E-7;0;Amateur
14.33161869;0.0009665;98.6656;75.19;267.2839;209.3339;2.4941E-5;2.4E-7;0;Amateur
14.3316195;0.0009662;98.6657;75.8943;264.9811;241.0702;2.4545E-5;2.3E-7;0;Amateur
14.3316198;0.0009664;98.6657;76.362;263.4554;132.7005;2.3313E-5;1.9E-7;0;Amateur
14.3316204;0.0009667;98.6658;76.9378;261.573;222.1268;2.2958E-5;1.8E-7;0;Amateur
14.33162087;0.0009672;98.6658;77.2733;260.4779;151.7278;2.2564E-5;1.7E-7;0;Amateur
14.33162183;0.0009678;98.6659;77.9135;258.3732;213.1443;2.2142E-5;1.6E-7;0;Amateur
14.33162203;0.0009685;98.6659;78.3228;257.0438;163.7687;1.9923E-5;1.0E-7;0;Amateur
14.33162213;0.0009685;98.666;78.3894;256.8278;147.0388;2.0031E-5;1.0E-7;0;Amateur
14.33162307;0.0009694;98.666;79.2995;253.821;159.741;1.8648E-5;6.0E-8;0;Amateur
14.33162332;0.0009694;98.6661;79.5816;252.8862;174.2924;1.8464E-5;6.0E-8;0;Amateur
14.33162375;0.0009704;98.6661;79.9398;251.7238;221.2976;1.8307E-5;5.0E-8;0;Amateur
14.33162499;0.0009722;98.6663;80.9173;248.5019;221.5359;1.6693E-5;1.0E-8;0;Amateur
14.33162491;0.0009725;98.6663;81.1294;247.7813;235.0312;1.5248E-5;-3.0E-8;0;Amateur
14.33162574;0.000974;98.6664;81.9673;245.0326;235.5095;1.4397E-5;-5.0E-8;0;Amateur
14.33162679;0.0009776;98.6665;83.2816;240.7837;171.9034;1.3717E-5;-7.0E-8;0;Amateur
14.33162764;0.0009807;98.6666;84.3318;237.352;186.4958;1.3071E-5;-9.0E-8;0;Amateur
14.33162767;0.0009809;98.6666;84.3972;237.1351;163.627;1.3007E-5;-9.0E-8;0;Amateur
14.33162837;0.0009839;98.6667;85.3754;233.9582;167.2876;1.4031E-5;-6.0E-8;0;Amateur
14.3316284;0.0009843;98.6667;85.5901;233.2425;194.3963;1.4458E-5;-5.0E-8;0;Amateur
14.33162876;0.000986;98.6667;85.9491;232.0638;245.1868;1.5411E-5;-2.0E-8;0;Amateur
14.33162903;0.0009871;98.6667;86.2859;231.0023;181.7288;1.555E-5;-2.0E-8;0;Amateur
14.33162945;0.0009896;98.6668;86.926;228.9108;241.9191;1.5177E-5;-3.0E-8;0;Amateur
14.33162974;0.0009914;98.6668;87.3361;227.5911;196.0482;1.5156E-5;-3.0E-8;0;Amateur
14.33163024;0.0009934;98.6668;87.904;225.7596;243.939;1.5964E-5;-1.0E-8;0;Amateur
14.33163081;0.0009959;98.6669;88.5947;223.5486;205.1786;1.7665E-5;4.0E-8;0;Amateur
14.33163159;0.0009988;98.6668;89.2916;221.3179;198.2964;1.8507E-5;6.0E-8;0;Amateur
14.33163201;0.0010022;98.6669;89.9995;219.0483;248.0173;1.7208E-5;2.0E-8;0;Amateur
14.33163255;0.0010041;98.6669;90.3407;217.9828;207.4168;1.7718E-5;4.0E-8;0;Amateur
14.33163364;0.0010076;98.6669;91.3174;214.8929;202.5615;1.8085E-5;5.0E-8;0;Amateur
